IRIDIUM 7               
1 24793U 97020B   25054.93463765  .00000941  00000+0  31868-3 0  9994
2 24793  86.3949 224.3165 0002276  96.0812 264.0644 14.35777929455646
IRIDIUM 5               
1 24795U 97020D   25054.75580818  .00010642  00000+0  90929-3 0  9997
2 24795  86.3929 135.9894 0112435 184.0905 175.9417 14.92683676468530
IRIDIUM 4               
1 24796U 97020E   25054.91978951  .00000920  00000+0  30582-3 0  9992
2 24796  86.3952 221.2747 0002038  95.8480 264.2949 14.36687871456209
IRIDIUM 914             
1 24836U 97030A   25054.96032001  .00001135  00000+0  34970-3 0  9994
2 24836  86.3913 230.2018 0001254 145.2664 214.8618 14.40675458590829
IRIDIUM 16              
1 24841U 97030F   25054.95943784  .00000873  00000+0  27938-3 0  9992
2 24841  86.3980 252.8368 0004262  83.5803 276.5880 14.38529939450727
IRIDIUM 911             
1 24842U 97030G   25054.95594094  .00001253  00000+0  33606-3 0  9991
2 24842  86.4407 251.7249 0016107 112.2603 248.0310 14.47386830458707
IRIDIUM 17              
1 24870U 97034B   25054.87670470  .00000792  00000+0  25745-3 0  9992
2 24870  86.3919 282.4315 0003206  60.0136 300.1380 14.37646949447307
IRIDIUM 920             
1 24871U 97034C   25054.93291991  .00000833  00000+0  25109-3 0  9997
2 24871  86.3919 261.8736 0013601  94.7657 265.5096 14.41348322450264
